[{"OBJECT_NAME":"TIANYAN 01","OBJECT_ID":"2019-093C","EPOCH":"2025-01-10T12:49:34.875552","MEAN_MOTION":14.84975881,"ECCENTRICITY":0.0014196,"INCLINATION":97.8099,"RA_OF_ASC_NODE":89.2736,"ARG_OF_PERICENTER":9.5942,"MEAN_ANOMALY":350.5542,"EPHEMERIS_TYPE":0,"CLASSIFICATION_TYPE":"U","NORAD_CAT_ID":44881,"ELEMENT_SET_NO":999,"REV_AT_EPOCH":27380,"BSTAR":0.00021054,"MEAN_MOTION_DOT":1.744e-5,"MEAN_MOTION_DDOT":0},{"OBJECT_NAME":"RS-44 & BREEZE-KM R/B","OBJECT_ID":"2019-096E","EPOCH":"2025-01-10T08:51:11.682144","MEAN_MOTION":12.79737793,"ECCENTRICITY":0.0216416,"INCLINATION":82.5238,"RA_OF_ASC_NODE":327.0991,"ARG_OF_PERICENTER":286.9451,"MEAN_ANOMALY":70.803,"EPHEMERIS_TYPE":0,"CLASSIFICATION_TYPE":"U","NORAD_CAT_ID":44909,"ELEMENT_SET_NO":999,"REV_AT_EPOCH":23547,"BSTAR":-7.3933e-7,"MEAN_MOTION_DOT":9.0e-8,"MEAN_MOTION_DDOT":0},{"OBJECT_NAME":"SALSAT","OBJECT_ID":"2020-068K","EPOCH":"2025-01-10T11:44:47.061312","MEAN_MOTION":15.18957018,"ECCENTRICITY":0.0011387,"INCLINATION":97.8427,"RA_OF_ASC_NODE":342.165,"ARG_OF_PERICENTER":330.7464,"MEAN_ANOMALY":29.313,"EPHEMERIS_TYPE":0,"CLASSIFICATION_TYPE":"U","NORAD_CAT_ID":46495,"ELEMENT_SET_NO":999,"REV_AT_EPOCH":23571,"BSTAR":0.00045451,"MEAN_MOTION_DOT":9.445e-5,"MEAN_MOTION_DDOT":0},{"OBJECT_NAME":"LEDSAT","OBJECT_ID":"2021-073D","EPOCH":"2025-01-10T11:38:58.617888","MEAN_MOTION":15.40885648,"ECCENTRICITY":0.0013122,"INCLINATION":97.412,"RA_OF_ASC_NODE":88.023,"ARG_OF_PERICENTER":265.1638,"MEAN_ANOMALY":94.811,"EPHEMERIS_TYPE":0,"CLASSIFICATION_TYPE":"U","NORAD_CAT_ID":49069,"ELEMENT_SET_NO":999,"REV_AT_EPOCH":18818,"BSTAR":0.00092513,"MEAN_MOTION_DOT":0.00038168,"MEAN_MOTION_DDOT":0},{"OBJECT_NAME":"XW-3 (CAS-9)","OBJECT_ID":"2021-131B","EPOCH":"2025-01-10T12:48:13.506624","MEAN_MOTION":14.40439149,"ECCENTRICITY":0.000361,"INCLINATION":98.5183,"RA_OF_ASC_NODE":100.6442,"ARG_OF_PERICENTER":213.7462,"MEAN_ANOMALY":146.3497,"EPHEMERIS_TYPE":0,"CLASSIFICATION_TYPE":"U","NORAD_CAT_ID":50466,"ELEMENT_SET_NO":999,"REV_AT_EPOCH":15984,"BSTAR":0.00035666,"MEAN_MOTION_DOT":1.089e-5,"MEAN_MOTION_DDOT":0},{"OBJECT_NAME":"GREENCUBE","OBJECT_ID":"2022-080B","EPOCH":"2025-01-09T04:40:23.238624","MEAN_MOTION":6.42557483,"ECCENTRICITY":0.000822,"INCLINATION":70.1418,"RA_OF_ASC_NODE":120.9515,"ARG_OF_PERICENTER":60.3032,"MEAN_ANOMALY":299.8446,"EPHEMERIS_TYPE":0,"CLASSIFICATION_TYPE":"U","NORAD_CAT_ID":53106,"ELEMENT_SET_NO":999,"REV_AT_EPOCH":5850,"BSTAR":0,"MEAN_MOTION_DOT":-3.0e-8,"MEAN_MOTION_DDOT":0},{"OBJECT_NAME":"CAS-5A (FO-118)","OBJECT_ID":"2022-167C","EPOCH":"2025-01-10T13:28:30.718560","MEAN_MOTION":15.66044731,"ECCENTRICITY":0.0002182,"INCLINATION":97.6113,"RA_OF_ASC_NODE":170.7755,"ARG_OF_PERICENTER":120.3297,"MEAN_ANOMALY":239.8178,"EPHEMERIS_TYPE":0,"CLASSIFICATION_TYPE":"U","NORAD_CAT_ID":54684,"ELEMENT_SET_NO":999,"REV_AT_EPOCH":11628,"BSTAR":0.0015241,"MEAN_MOTION_DOT":0.00158392,"MEAN_MOTION_DDOT":0},{"OBJECT_NAME":"STRATOSAT-TK 1 (RS52S)","OBJECT_ID":"2023-091B","EPOCH":"2025-01-10T13:00:01.469088","MEAN_MOTION":15.26398575,"ECCENTRICITY":0.0012406,"INCLINATION":97.5813,"RA_OF_ASC_NODE":70.5523,"ARG_OF_PERICENTER":117.4229,"MEAN_ANOMALY":242.8272,"EPHEMERIS_TYPE":0,"CLASSIFICATION_TYPE":"U","NORAD_CAT_ID":57167,"ELEMENT_SET_NO":999,"REV_AT_EPOCH":8502,"BSTAR":0.001263,"MEAN_MOTION_DOT":0.00032975,"MEAN_MOTION_DDOT":0},{"OBJECT_NAME":"UMKA 1 (RS40S)","OBJECT_ID":"2023-091G","EPOCH":"2025-01-10T13:52:03.778464","MEAN_MOTION":15.12392292,"ECCENTRICITY":0.0016365,"INCLINATION":97.5838,"RA_OF_ASC_NODE":66.8506,"ARG_OF_PERICENTER":128.5841,"MEAN_ANOMALY":231.6858,"EPHEMERIS_TYPE":0,"CLASSIFICATION_TYPE":"U","NORAD_CAT_ID":57172,"ELEMENT_SET_NO":999,"REV_AT_EPOCH":8478,"BSTAR":0.00049565,"MEAN_MOTION_DOT":8.568e-5,"MEAN_MOTION_DDOT":0},{"OBJECT_NAME":"CUBESX-HSE 3 (RS42S)","OBJECT_ID":"2023-091N","EPOCH":"2025-01-10T13:04:23.900448","MEAN_MOTION":15.15981385,"ECCENTRICITY":0.0016234,"INCLINATION":97.5874,"RA_OF_ASC_NODE":68.0771,"ARG_OF_PERICENTER":120.6836,"MEAN_ANOMALY":239.5999,"EPHEMERIS_TYPE":0,"CLASSIFICATION_TYPE":"U","NORAD_CAT_ID":57178,"ELEMENT_SET_NO":999,"REV_AT_EPOCH":8484,"BSTAR":0.0006784,"MEAN_MOTION_DOT":0.0001301,"MEAN_MOTION_DDOT":0},{"OBJECT_NAME":"MONITOR-3 (RS58S)","OBJECT_ID":"2023-091Q","EPOCH":"2025-01-10T13:35:15.556128","MEAN_MOTION":15.14897988,"ECCENTRICITY":0.0016575,"INCLINATION":97.5867,"RA_OF_ASC_NODE":67.6958,"ARG_OF_PERICENTER":122.137,"MEAN_ANOMALY":238.1472,"EPHEMERIS_TYPE":0,"CLASSIFICATION_TYPE":"U","NORAD_CAT_ID":57180,"ELEMENT_SET_NO":999,"REV_AT_EPOCH":8482,"BSTAR":0.0006577,"MEAN_MOTION_DOT":0.0001223,"MEAN_MOTION_DDOT":0},{"OBJECT_NAME":"MONITOR-4 (RS57S)","OBJECT_ID":"2023-091S","EPOCH":"2025-01-10T13:35:18.873024","MEAN_MOTION":15.14903474,"ECCENTRICITY":0.0016615,"INCLINATION":97.5862,"RA_OF_ASC_NODE":67.656,"ARG_OF_PERICENTER":122.6869,"MEAN_ANOMALY":237.5968,"EPHEMERIS_TYPE":0,"CLASSIFICATION_TYPE":"U","NORAD_CAT_ID":57182,"ELEMENT_SET_NO":999,"REV_AT_EPOCH":8482,"BSTAR":0.00067815,"MEAN_MOTION_DOT":0.00012615,"MEAN_MOTION_DDOT":0},{"OBJECT_NAME":"MONITOR-2 (RS39S)","OBJECT_ID":"2023-091U","EPOCH":"2025-01-10T13:38:35.816640","MEAN_MOTION":15.11852002,"ECCENTRICITY":0.0014274,"INCLINATION":97.5869,"RA_OF_ASC_NODE":67.2365,"ARG_OF_PERICENTER":118.5544,"MEAN_ANOMALY":241.7125,"EPHEMERIS_TYPE":0,"CLASSIFICATION_TYPE":"U","NORAD_CAT_ID":57184,"ELEMENT_SET_NO":999,"REV_AT_EPOCH":8479,"BSTAR":0.00047171,"MEAN_MOTION_DOT":8.023e-5,"MEAN_MOTION_DDOT":0},{"OBJECT_NAME":"SVYATOBOR 1 (RS60S)","OBJECT_ID":"2023-091X","EPOCH":"2025-01-10T12:55:21.279936","MEAN_MOTION":15.15125032,"ECCENTRICITY":0.0013474,"INCLINATION":97.5872,"RA_OF_ASC_NODE":68.3584,"ARG_OF_PERICENTER":113.4262,"MEAN_ANOMALY":246.8388,"EPHEMERIS_TYPE":0,"CLASSIFICATION_TYPE":"U","NORAD_CAT_ID":57187,"ELEMENT_SET_NO":999,"REV_AT_EPOCH":8486,"BSTAR":0.00057326,"MEAN_MOTION_DOT":0.00010705,"MEAN_MOTION_DDOT":0},{"OBJECT_NAME":"VIZARD-METEO (RS38S)","OBJECT_ID":"2023-091Z","EPOCH":"2025-01-10T12:52:20.670240","MEAN_MOTION":15.18194198,"ECCENTRICITY":0.0012075,"INCLINATION":97.5861,"RA_OF_ASC_NODE":69.3786,"ARG_OF_PERICENTER":109.0695,"MEAN_ANOMALY":251.1847,"EPHEMERIS_TYPE":0,"CLASSIFICATION_TYPE":"U","NORAD_CAT_ID":57189,"ELEMENT_SET_NO":999,"REV_AT_EPOCH":8493,"BSTAR":0.00070259,"MEAN_MOTION_DOT":0.00014339,"MEAN_MOTION_DDOT":0},{"OBJECT_NAME":"NANOZOND 1 (RS49S)","OBJECT_ID":"2023-091AA","EPOCH":"2025-01-10T12:57:23.463360","MEAN_MOTION":15.25138653,"ECCENTRICITY":0.0009583,"INCLINATION":97.5823,"RA_OF_ASC_NODE":71.174,"ARG_OF_PERICENTER":108.9185,"MEAN_ANOMALY":251.3092,"EPHEMERIS_TYPE":0,"CLASSIFICATION_TYPE":"U","NORAD_CAT_ID":57190,"ELEMENT_SET_NO":999,"REV_AT_EPOCH":8506,"BSTAR":0.0010033,"MEAN_MOTION_DOT":0.00025159,"MEAN_MOTION_DDOT":0}]
