TIANYAN 01              
1 44881U 19093C   25010.53443143  .00001744  00000+0  21054-3 0  9992
2 44881  97.8099  89.2736 0014196   9.5942 350.5542 14.84975881273803
RS-44 & BREEZE-KM R/B   
1 44909U 19096E   25010.36888521  .00000009  00000+0 -73933-6 0  9990
2 44909  82.5238 327.0991 0216416 286.9451  70.8030 12.79737793235476
SALSAT                  
1 46495U 20068K   25010.48943358  .00009445  00000+0  45451-3 0  9999
2 46495  97.8427 342.1650 0011387 330.7464  29.3130 15.18957018235716
LEDSAT                  
1 49069U 21073D   25010.48540067  .00038168  00000+0  92513-3 0  9991
2 49069  97.4120  88.0230 0013122 265.1638  94.8110 15.40885648188182
XW-3 (CAS-9)            
1 50466U 21131B   25010.53348966  .00001089  00000+0  35666-3 0  9997
2 50466  98.5183 100.6442 0003610 213.7462 146.3497 14.40439149159849
GREENCUBE               
1 53106U 22080B   25009.19471341 -.00000003  00000+0  00000+0 0  9995
2 53106  70.1418 120.9515 0008220  60.3032 299.8446  6.42557483 58501
CAS-5A (FO-118)         
1 54684U 22167C   25010.56146665  .00158392  00000+0  15241-2 0  9994
2 54684  97.6113 170.7755 0002182 120.3297 239.8178 15.66044731116288
STRATOSAT-TK 1 (RS52S)  
1 57167U 23091B   25010.54168367  .00032975  00000+0  12630-2 0  9998
2 57167  97.5813  70.5523 0012406 117.4229 242.8272 15.26398575 85025
UMKA 1 (RS40S)          
1 57172U 23091G   25010.57782151  .00008568  00000+0  49565-3 0  9999
2 57172  97.5838  66.8506 0016365 128.5841 231.6858 15.12392292 84781
CUBESX-HSE 3 (RS42S)    
1 57178U 23091N   25010.54472107  .00013010  00000+0  67840-3 0  9993
2 57178  97.5874  68.0771 0016234 120.6836 239.5999 15.15981385 84847
MONITOR-3 (RS58S)       
1 57180U 23091Q   25010.56615227  .00012230  00000+0  65770-3 0  9993
2 57180  97.5867  67.6958 0016575 122.1370 238.1472 15.14897988 84825
MONITOR-4 (RS57S)       
1 57182U 23091S   25010.56619066  .00012615  00000+0  67815-3 0  9999
2 57182  97.5862  67.6560 0016615 122.6869 237.5968 15.14903474 84825
MONITOR-2 (RS39S)       
1 57184U 23091U   25010.56847010  .00008023  00000+0  47171-3 0  9994
2 57184  97.5869  67.2365 0014274 118.5544 241.7125 15.11852002 84791
SVYATOBOR 1 (RS60S)     
1 57187U 23091X   25010.53844074  .00010705  00000+0  57326-3 0  9994
2 57187  97.5872  68.3584 0013474 113.4262 246.8388 15.15125032 84860
VIZARD-METEO (RS38S)    
1 57189U 23091Z   25010.53635035  .00014339  00000+0  70259-3 0  9998
2 57189  97.5861  69.3786 0012075 109.0695 251.1847 15.18194198 84931
NANOZOND 1 (RS49S)      
1 57190U 23091AA  25010.53985490  .00025159  00000+0  10033-2 0  9998
2 57190  97.5823  71.1740 0009583 108.9185 251.3092 15.25138653 85065
